[
    {
        "Altitude(m)": 711128.4138171696,
        "Argument of Periapsis(deg)": 0.006834072711976239,
        "Eccentricity": 0.0,
        "Inclination(deg)": 45.0,
        "Latitude(deg)": -28.510872745963542,
        "Longitude(deg)": 76.8447807022094,
        "Mean Anomaly(deg)": -42.17097001151146,
        "RAAN(deg)": 209.99354883512507,
        "Satellite Name": "Constellation 1 943",
        "Satellite Number": 943,
        "Semi-Major Axis(m)": 7083131.272910544,
        "Time(s)": 114
    },
    {
        "Altitude(m)": 711114.6013276329,
        "Argument of Periapsis(deg)": 0.006894020718221645,
        "Eccentricity": 0.0,
        "Inclination(deg)": 45.0,
        "Latitude(deg)": -28.474636021201952,
        "Longitude(deg)": 76.89598034369777,
        "Mean Anomaly(deg)": -42.1102688712616,
        "RAAN(deg)": 209.99349224595952,
        "Satellite Name": "Constellation 1 943",
        "Satellite Number": 943,
        "Semi-Major Axis(m)": 7083131.272910544,
        "Time(s)": 115
    },
    {
        "Altitude(m)": 711100.7868178141,
        "Argument of Periapsis(deg)": 0.006953968724467052,
        "Eccentricity": 0.0,
        "Inclination(deg)": 45.0,
        "Latitude(deg)": -28.438376551461253,
        "Longitude(deg)": 76.94714238644193,
        "Mean Anomaly(deg)": -42.04956773101164,
        "RAAN(deg)": 209.99343565679393,
        "Satellite Name": "Constellation 1 943",
        "Satellite Number": 943,
        "Semi-Major Axis(m)": 7083131.272910544,
        "Time(s)": 116
    },
    {
        "Altitude(m)": 711086.9703357492,
        "Argument of Periapsis(deg)": 0.007013916730712457,
        "Eccentricity": 0.0,
        "Inclination(deg)": 45.0,
        "Latitude(deg)": -28.402094385508406,
        "Longitude(deg)": 76.99826688950328,
        "Mean Anomaly(deg)": -41.98886659076177,
        "RAAN(deg)": 209.99337906762838,
        "Satellite Name": "Constellation 1 943",
        "Satellite Number": 943,
        "Semi-Major Axis(m)": 7083131.272910544,
        "Time(s)": 117
    },
    {
        "Altitude(m)": 711073.1519294683,
        "Argument of Periapsis(deg)": 0.007073864736957864,
        "Eccentricity": 0.0,
        "Inclination(deg)": 45.0,
        "Latitude(deg)": -28.365789572040445,
        "Longitude(deg)": 77.04935391197559,
        "Mean Anomaly(deg)": -41.92816545051184,
        "RAAN(deg)": 209.99332247846283,
        "Satellite Name": "Constellation 1 943",
        "Satellite Number": 943,
        "Semi-Major Axis(m)": 7083131.272910544,
        "Time(s)": 118
    },
    {
        "Altitude(m)": 711059.3316469913,
        "Argument of Periapsis(deg)": 0.0071338127432032696,
        "Eccentricity": 0.0,
        "Inclination(deg)": 45.0,
        "Latitude(deg)": -28.329462159685313,
        "Longitude(deg)": 77.10040334488691,
        "Mean Anomaly(deg)": -41.86746431026195,
        "RAAN(deg)": 209.99326588929722,
        "Satellite Name": "Constellation 1 943",
        "Satellite Number": 943,
        "Semi-Major Axis(m)": 7083131.272910544,
        "Time(s)": 119
    },
    {
        "Altitude(m)": 711045.5095363441,
        "Argument of Periapsis(deg)": 0.007193760749448674,
        "Eccentricity": 0.0,
        "Inclination(deg)": 45.0,
        "Latitude(deg)": -28.293112197000887,
        "Longitude(deg)": 77.15141558358735,
        "Mean Anomaly(deg)": -41.80676317001199,
        "RAAN(deg)": 209.99320930013167,
        "Satellite Name": "Constellation 1 943",
        "Satellite Number": 943,
        "Semi-Major Axis(m)": 7083131.272910544,
        "Time(s)": 120
    },
    {
        "Altitude(m)": 711031.6856455466,
        "Argument of Periapsis(deg)": 0.007253708755694079,
        "Eccentricity": 0.0,
        "Inclination(deg)": 45.0,
        "Latitude(deg)": -28.256739732476195,
        "Longitude(deg)": 77.20239051916647,
        "Mean Anomaly(deg)": -41.74606202976216,
        "RAAN(deg)": 209.99315271096611,
        "Satellite Name": "Constellation 1 943",
        "Satellite Number": 943,
        "Semi-Major Axis(m)": 7083131.272910544,
        "Time(s)": 121
    },
    {
        "Altitude(m)": 711017.8600226041,
        "Argument of Periapsis(deg)": 0.0073136567619394854,
        "Eccentricity": 0.0,
        "Inclination(deg)": 45.0,
        "Latitude(deg)": -28.22034481453062,
        "Longitude(deg)": 77.25332821084096,
        "Mean Anomaly(deg)": -41.68536088951227,
        "RAAN(deg)": 209.99309612180053,
        "Satellite Name": "Constellation 1 943",
        "Satellite Number": 943,
        "Semi-Major Axis(m)": 7083131.272910544,
        "Time(s)": 122
    },
    {
        "Altitude(m)": 711004.032715529,
        "Argument of Periapsis(deg)": 0.0073736047681848904,
        "Eccentricity": 0.0,
        "Inclination(deg)": 45.0,
        "Latitude(deg)": -28.18392749151439,
        "Longitude(deg)": 77.30422871785683,
        "Mean Anomaly(deg)": -41.624659749262435,
        "RAAN(deg)": 209.99303953263498,
        "Satellite Name": "Constellation 1 943",
        "Satellite Number": 943,
        "Semi-Major Axis(m)": 7083131.272910544,
        "Time(s)": 123
    },
    {
        "Altitude(m)": 710990.2037723277,
        "Argument of Periapsis(deg)": 0.007433552774430298,
        "Eccentricity": 0.0,
        "Inclination(deg)": 45.0,
        "Latitude(deg)": -28.147487811708377,
        "Longitude(deg)": 77.35509209948918,
        "Mean Anomaly(deg)": -41.563958609012445,
        "RAAN(deg)": 209.99298294346937,
        "Satellite Name": "Constellation 1 943",
        "Satellite Number": 943,
        "Semi-Major Axis(m)": 7083131.272910544,
        "Time(s)": 124
    },
    {
        "Altitude(m)": 710976.3732409948,
        "Argument of Periapsis(deg)": 0.007493500780675703,
        "Eccentricity": 0.0,
        "Inclination(deg)": 45.0,
        "Latitude(deg)": -28.11102582332461,
        "Longitude(deg)": 77.40591841504121,
        "Mean Anomaly(deg)": -41.503257468762605,
        "RAAN(deg)": 209.99292635430382,
        "Satellite Name": "Constellation 1 943",
        "Satellite Number": 943,
        "Semi-Major Axis(m)": 7083131.272910544,
        "Time(s)": 125
    },
    {
        "Altitude(m)": 710962.54116953,
        "Argument of Periapsis(deg)": 0.007553448786921108,
        "Eccentricity": 0.0,
        "Inclination(deg)": 45.0,
        "Latitude(deg)": -28.07454157450581,
        "Longitude(deg)": 77.45670755574753,
        "Mean Anomaly(deg)": -41.442556328512644,
        "RAAN(deg)": 209.99286976513827,
        "Satellite Name": "Constellation 1 943",
        "Satellite Number": 943,
        "Semi-Major Axis(m)": 7083131.272910544,
        "Time(s)": 126
    },
    {
        "Altitude(m)": 710948.7076059165,
        "Argument of Periapsis(deg)": 0.007613396793166514,
        "Eccentricity": 0.0,
        "Inclination(deg)": 45.0,
        "Latitude(deg)": -28.038035113325606,
        "Longitude(deg)": 77.5074599171605,
        "Mean Anomaly(deg)": -41.38185518826279,
        "RAAN(deg)": 209.99281317597269,
        "Satellite Name": "Constellation 1 943",
        "Satellite Number": 943,
        "Semi-Major Axis(m)": 7083131.272910544,
        "Time(s)": 127
    },
    {
        "Altitude(m)": 710934.8725981391,
        "Argument of Periapsis(deg)": 0.007673344799411918,
        "Eccentricity": 0.0,
        "Inclination(deg)": 45.0,
        "Latitude(deg)": -28.00150648778882,
        "Longitude(deg)": 77.5581753905691,
        "Mean Anomaly(deg)": -41.32115404801282,
        "RAAN(deg)": 209.99275658680713,
        "Satellite Name": "Constellation 1 943",
        "Satellite Number": 943,
        "Semi-Major Axis(m)": 7083131.272910544,
        "Time(s)": 128
    },
    {
        "Altitude(m)": 710921.0361941778,
        "Argument of Periapsis(deg)": 0.007733292805657325,
        "Eccentricity": 0.0,
        "Inclination(deg)": 45.0,
        "Latitude(deg)": -27.964955745831507,
        "Longitude(deg)": 77.6088540353852,
        "Mean Anomaly(deg)": -41.26045290776296,
        "RAAN(deg)": 209.99269999764158,
        "Satellite Name": "Constellation 1 943",
        "Satellite Number": 943,
        "Semi-Major Axis(m)": 7083131.272910544,
        "Time(s)": 129
    },
    {
        "Altitude(m)": 710907.1984420018,
        "Argument of Periapsis(deg)": 0.00779324081190273,
        "Eccentricity": 0.0,
        "Inclination(deg)": 45.0,
        "Latitude(deg)": -27.92838293532071,
        "Longitude(deg)": 77.65949591104699,
        "Mean Anomaly(deg)": -41.1997517675131,
        "RAAN(deg)": 209.99264340847597,
        "Satellite Name": "Constellation 1 943",
        "Satellite Number": 943,
        "Semi-Major Axis(m)": 7083131.272910544,
        "Time(s)": 130
    },
    {
        "Altitude(m)": 710893.3593895745,
        "Argument of Periapsis(deg)": 0.007853188818148135,
        "Eccentricity": 0.0,
        "Inclination(deg)": 45.0,
        "Latitude(deg)": -27.891788104054815,
        "Longitude(deg)": 77.7101010770179,
        "Mean Anomaly(deg)": -41.13905062726314,
        "RAAN(deg)": 209.99258681931042,
        "Satellite Name": "Constellation 1 943",
        "Satellite Number": 943,
        "Semi-Major Axis(m)": 7083131.272910544,
        "Time(s)": 131
    },
    {
        "Altitude(m)": 710879.5190848625,
        "Argument of Periapsis(deg)": 0.007913136824393542,
        "Eccentricity": 0.0,
        "Inclination(deg)": 45.0,
        "Latitude(deg)": -27.855171299763594,
        "Longitude(deg)": 77.76066959278616,
        "Mean Anomaly(deg)": -41.07834948701328,
        "RAAN(deg)": 209.99253023014484,
        "Satellite Name": "Constellation 1 943",
        "Satellite Number": 943,
        "Semi-Major Axis(m)": 7083131.272910544,
        "Time(s)": 132
    }
]